LEMUR-2-KREMPEL-BRO1    
1 63357U 25061G   26074.15236103  .00005786  00000+0  32271-3 0  9991
2 63357  97.5529  50.7060 0017981 208.9395 151.0841 15.13827035 53400
LEMUR-2-LANGER2SPACE    
1 63358U 25061H   26074.16008380  .00005714  00000+0  32174-3 0  9990
2 63358  97.5533  50.5656 0015742 217.7588 142.2540 15.13520604 53398
LEMUR-2-BALTO           
1 63395U 25052BH  26074.23548637  .00007917  00000+0  65747-3 0  9992
2 63395  97.6982 328.9873 0001574 355.0662   5.0545 14.99021608 54685
