[{"OBJECT_NAME":"LEMUR-2-KREMPEL-BRO1","OBJECT_ID":"2025-061G","EPOCH":"2026-03-15T03:39:23.992992","MEAN_MOTION":15.13827035,"ECCENTRICITY":0.00179813,"INCLINATION":97.5529,"RA_OF_ASC_NODE":50.706,"ARG_OF_PERICENTER":208.9395,"MEAN_ANOMALY":151.0841,"EPHEMERIS_TYPE":0,"CLASSIFICATION_TYPE":"U","NORAD_CAT_ID":63357,"ELEMENT_SET_NO":999,"REV_AT_EPOCH":5340,"BSTAR":0.00032270688,"MEAN_MOTION_DOT":5.786e-5,"MEAN_MOTION_DDOT":0},{"OBJECT_NAME":"LEMUR-2-LANGER2SPACE","OBJECT_ID":"2025-061H","EPOCH":"2026-03-15T03:50:31.240320","MEAN_MOTION":15.13520604,"ECCENTRICITY":0.00157424,"INCLINATION":97.5533,"RA_OF_ASC_NODE":50.5656,"ARG_OF_PERICENTER":217.7588,"MEAN_ANOMALY":142.254,"EPHEMERIS_TYPE":0,"CLASSIFICATION_TYPE":"U","NORAD_CAT_ID":63358,"ELEMENT_SET_NO":999,"REV_AT_EPOCH":5339,"BSTAR":0.00032173785,"MEAN_MOTION_DOT":5.714e-5,"MEAN_MOTION_DDOT":0},{"OBJECT_NAME":"LEMUR-2-BALTO","OBJECT_ID":"2025-052BH","EPOCH":"2026-03-15T05:39:06.022368","MEAN_MOTION":14.99021608,"ECCENTRICITY":0.00015745,"INCLINATION":97.6982,"RA_OF_ASC_NODE":328.9873,"ARG_OF_PERICENTER":355.0662,"MEAN_ANOMALY":5.0545,"EPHEMERIS_TYPE":0,"CLASSIFICATION_TYPE":"U","NORAD_CAT_ID":63395,"ELEMENT_SET_NO":999,"REV_AT_EPOCH":5468,"BSTAR":0.00065747108,"MEAN_MOTION_DOT":7.917e-5,"MEAN_MOTION_DDOT":0}]
